SKYSAT-A                
1 39418U 13066C   26199.07553485  .00001492  00000+0  87414-4 0  9998
2 39418  97.3800 247.4884 0020728 203.0344 156.9960 15.13124135693152
SKYSAT-B                
1 40072U 14037D   26198.85478173  .00000585  00000+0  70239-4 0  9999
2 40072  98.3855 159.5727 0005780 164.7180 195.4211 14.88095356650526
SKYSAT-C1               
1 41601U 16040C   26199.08477345  .00004754  00000+0  13438-3 0  9999
2 41601  96.9547 229.1369 0000356 218.0335 142.0885 15.36776427562618
SKYSAT-C4               
1 41771U 16058B   26199.01607434  .00010029  00000+0  18369-3 0  9993
2 41771  96.9165 219.5148 0003507 113.6433 246.5188 15.49495091550241
SKYSAT-C5               
1 41772U 16058C   26199.08197859  .00004006  00000+0  12503-3 0  9998
2 41772  97.0451 238.3337 0002869 153.1495 206.9897 15.33742466548482
SKYSAT-C2               
1 41773U 16058D   26199.01058192  .00007110  00000+0  16473-3 0  9997
2 41773  97.0159 219.9577 0001026 338.8088  21.3118 15.42719384549808
SKYSAT-C3               
1 41774U 16058E   26199.06798079  .00014713  00000+0  23063-3 0  9998
2 41774  96.8992 228.7506 0002615 130.2906 229.8578 15.53790670550906
SKYSAT-C11              
1 42987U 17068A   26198.93692861  .00017166  00000+0  21849-3 0  9999
2 42987  97.4388 349.1483 0001289 155.4215 204.7103 15.59422768488035
SKYSAT-C10              
1 42988U 17068B   26199.19374319  .00005568  00000+0  16562-3 0  9993
2 42988  97.4547 336.3604 0001536 111.7285 248.4122 15.35151685487118
SKYSAT-C9               
1 42989U 17068C   26199.12935813  .00007158  00000+0  16840-3 0  9995
2 42989  97.4467 337.5307 0008387  35.2867 324.8933 15.42257273487522
SKYSAT-C8               
1 42990U 17068D   26199.31265628  .00005540  00000+0  15279-3 0  9996
2 42990  97.4565 336.4004 0001248 104.2082 255.9302 15.37527335487099
SKYSAT-C7               
1 42991U 17068E   26199.11198719  .00005762  00000+0  15904-3 0  9992
2 42991  97.4575 337.1885 0005470  11.3778 348.7589 15.37475335487121
SKYSAT-C6               
1 42992U 17068F   26198.86718076  .00005065  00000+0  15546-3 0  9996
2 42992  97.4612 336.7817 0005052  82.8828 277.2989 15.34196805487027
SKYSAT-C12              
1 43797U 18099AR  26199.03029964  .00010534  00000+0  19045-3 0  9991
2 43797  96.9254 221.0451 0005139  63.8595 296.3186 15.49847254426631
